[{"OBJECT_NAME":"STARLINK-35076","OBJECT_ID":"2025-194Z","EPOCH":"2026-03-09T13:08:02.056992","MEAN_MOTION":15.05648502,"ECCENTRICITY":0.00018685,"INCLINATION":97.6024,"RA_OF_ASC_NODE":284.2131,"ARG_OF_PERICENTER":77.2963,"MEAN_ANOMALY":282.8472,"EPHEMERIS_TYPE":0,"CLASSIFICATION_TYPE":"U","NORAD_CAT_ID":65457,"ELEMENT_SET_NO":999,"REV_AT_EPOCH":2962,"BSTAR":0.00020624272,"MEAN_MOTION_DOT":2.916e-5,"MEAN_MOTION_DDOT":0},{"OBJECT_NAME":"COSMOS 2251 DEB","OBJECT_ID":"1993-036BC","EPOCH":"2026-03-09T15:03:07.178688","MEAN_MOTION":15.0931248,"ECCENTRICITY":0.0027782,"INCLINATION":73.8339,"RA_OF_ASC_NODE":121.9492,"ARG_OF_PERICENTER":197.5511,"MEAN_ANOMALY":285.2146,"EPHEMERIS_TYPE":0,"CLASSIFICATION_TYPE":"U","NORAD_CAT_ID":33811,"ELEMENT_SET_NO":999,"REV_AT_EPOCH":91327,"BSTAR":0.0014101,"MEAN_MOTION_DOT":0.00022722,"MEAN_MOTION_DDOT":0}]
